{
  "type": "FeatureCollection",
  "name": "Sunnyside Beach depth contour lines",
  "crs": {
    "type": "name",
    "properties": {
      "name": "urn:ogc:def:crs:OGC:1.3:CRS84"
    }
  },
  "metadata": {
    "source": "WA DNR / USGS CoNED MLLW bathymetry sampled 2026-06-13 for Sunnyside Beach dive map",
    "units": {
      "primary": "feet",
      "secondary": "meters"
    },
    "bounds": {
      "north": 47.18025,
      "south": 47.17755,
      "west": -122.59535,
      "east": -122.58945,
      "rows": 38,
      "columns": 58
    },
    "exportedAt": "2026-06-13T17:53:29.156Z"
  },
  "features": [
    {
      "type": "Feature",
      "properties": {
        "id": "sunnyside-10ft-1",
        "depth_ft": 10,
        "depth_m": 3.05,
        "label": "10 ft",
        "source": "WA DNR / USGS CoNED MLLW bathymetry sampled 2026-06-13 for Sunnyside Beach dive map"
      },
      "geometry": {
        "type": "LineString",
        "coordinates": [
          [
            -122.591447,
            47.17755
          ],
          [
            -122.5914358,
            47.177623
          ],
          [
            -122.5914266,
            47.1776959
          ],
          [
            -122.5914172,
            47.1777689
          ],
          [
            -122.591423,
            47.1778419
          ],
          [
            -122.5914191,
            47.1779149
          ],
          [
            -122.5914167,
            47.1779274
          ],
          [
            -122.5913904,
            47.1779878
          ],
          [
            -122.5913441,
            47.1780608
          ],
          [
            -122.5913145,
            47.1781338
          ],
          [
            -122.5913132,
            47.1781354
          ],
          [
            -122.5912603,
            47.1782068
          ],
          [
            -122.5912096,
            47.178254
          ],
          [
            -122.5911749,
            47.1782797
          ],
          [
            -122.5911061,
            47.1783519
          ],
          [
            -122.591105,
            47.1783527
          ],
          [
            -122.5910044,
            47.1784257
          ],
          [
            -122.5910026,
            47.1784269
          ],
          [
            -122.5908991,
            47.1784929
          ],
          [
            -122.5908911,
            47.1784986
          ],
          [
            -122.5908004,
            47.1785716
          ],
          [
            -122.5907956,
            47.1785758
          ],
          [
            -122.5907266,
            47.1786446
          ],
          [
            -122.5906921,
            47.1787074
          ],
          [
            -122.5906798,
            47.1787176
          ],
          [
            -122.5906263,
            47.1787905
          ],
          [
            -122.5906027,
            47.1788635
          ],
          [
            -122.5905906,
            47.1789365
          ],
          [
            -122.5905886,
            47.1789442
          ],
          [
            -122.5905526,
            47.1790095
          ],
          [
            -122.5905248,
            47.1790824
          ],
          [
            -122.5905076,
            47.1791554
          ],
          [
            -122.5904985,
            47.1792284
          ],
          [
            -122.590508,
            47.1793014
          ],
          [
            -122.5905304,
            47.1793743
          ],
          [
            -122.5905462,
            47.1794473
          ],
          [
            -122.5905632,
            47.1795203
          ],
          [
            -122.590587,
            47.1795932
          ],
          [
            -122.5905886,
            47.1795981
          ],
          [
            -122.5905987,
            47.1796662
          ],
          [
            -122.5905925,
            47.1797392
          ],
          [
            -122.5905886,
            47.1797598
          ],
          [
            -122.590565,
            47.1798122
          ],
          [
            -122.5905289,
            47.1798851
          ],
          [
            -122.5904978,
            47.1799581
          ],
          [
            -122.5904851,
            47.1799759
          ],
          [
            -122.5904316,
            47.1800311
          ],
          [
            -122.5903816,
            47.1800572
          ],
          [
            -122.5903098,
            47.1801041
          ],
          [
            -122.5902781,
            47.1801163
          ],
          [
            -122.5901746,
            47.1801487
          ],
          [
            -122.5900711,
            47.1801767
          ],
          [
            -122.5900701,
            47.180177
          ],
          [
            -122.5899675,
            47.1802237
          ],
          [
            -122.5899339,
            47.18025
          ]
        ]
      }
    },
    {
      "type": "Feature",
      "properties": {
        "id": "sunnyside-20ft-1",
        "depth_ft": 20,
        "depth_m": 6.1,
        "label": "20 ft",
        "source": "WA DNR / USGS CoNED MLLW bathymetry sampled 2026-06-13 for Sunnyside Beach dive map"
      },
      "geometry": {
        "type": "LineString",
        "coordinates": [
          [
            -122.5916807,
            47.17755
          ],
          [
            -122.5916671,
            47.177623
          ],
          [
            -122.5916346,
            47.1776959
          ],
          [
            -122.5916237,
            47.177758
          ],
          [
            -122.5916228,
            47.1777689
          ],
          [
            -122.5915879,
            47.1778419
          ],
          [
            -122.5915629,
            47.1779149
          ],
          [
            -122.5915538,
            47.1779878
          ],
          [
            -122.5915202,
            47.1780491
          ],
          [
            -122.5915151,
            47.1780608
          ],
          [
            -122.5914948,
            47.1781338
          ],
          [
            -122.591435,
            47.1782068
          ],
          [
            -122.5914167,
            47.1782208
          ],
          [
            -122.5913275,
            47.1782797
          ],
          [
            -122.5913132,
            47.1782888
          ],
          [
            -122.591227,
            47.1783527
          ],
          [
            -122.5912096,
            47.1783658
          ],
          [
            -122.5911198,
            47.1784257
          ],
          [
            -122.5911061,
            47.1784362
          ],
          [
            -122.5910026,
            47.1784984
          ],
          [
            -122.5910023,
            47.1784986
          ],
          [
            -122.5909177,
            47.1785716
          ],
          [
            -122.5908991,
            47.178584
          ],
          [
            -122.5908452,
            47.1786446
          ],
          [
            -122.5907956,
            47.1786896
          ],
          [
            -122.5907804,
            47.1787176
          ],
          [
            -122.5907433,
            47.1787905
          ],
          [
            -122.5907207,
            47.1788635
          ],
          [
            -122.5906921,
            47.17892
          ],
          [
            -122.5906852,
            47.1789365
          ],
          [
            -122.5906605,
            47.1790095
          ],
          [
            -122.5906427,
            47.1790824
          ],
          [
            -122.5906343,
            47.1791554
          ],
          [
            -122.5906326,
            47.1792284
          ],
          [
            -122.5906451,
            47.1793014
          ],
          [
            -122.5906564,
            47.1793743
          ],
          [
            -122.590675,
            47.1794473
          ],
          [
            -122.5906922,
            47.1795203
          ],
          [
            -122.5906922,
            47.1795203
          ],
          [
            -122.5907195,
            47.1795932
          ],
          [
            -122.5907195,
            47.1796662
          ],
          [
            -122.5907182,
            47.1797392
          ],
          [
            -122.59071,
            47.1798122
          ],
          [
            -122.5907014,
            47.1798851
          ],
          [
            -122.5906921,
            47.1799036
          ],
          [
            -122.5906604,
            47.1799581
          ],
          [
            -122.5906094,
            47.1800311
          ],
          [
            -122.5905886,
            47.1800501
          ],
          [
            -122.5905145,
            47.1801041
          ],
          [
            -122.5904851,
            47.180118
          ],
          [
            -122.5903816,
            47.1801599
          ],
          [
            -122.5903485,
            47.180177
          ],
          [
            -122.5902781,
            47.1802035
          ],
          [
            -122.5901746,
            47.1802477
          ],
          [
            -122.5901696,
            47.18025
          ]
        ]
      }
    },
    {
      "type": "Feature",
      "properties": {
        "id": "sunnyside-30ft-1",
        "depth_ft": 30,
        "depth_m": 9.14,
        "label": "30 ft",
        "source": "WA DNR / USGS CoNED MLLW bathymetry sampled 2026-06-13 for Sunnyside Beach dive map"
      },
      "geometry": {
        "type": "LineString",
        "coordinates": [
          [
            -122.5921525,
            47.17755
          ],
          [
            -122.5921412,
            47.1775826
          ],
          [
            -122.5921286,
            47.177623
          ],
          [
            -122.5921002,
            47.1776959
          ],
          [
            -122.5920682,
            47.1777689
          ],
          [
            -122.5920377,
            47.1778251
          ],
          [
            -122.592028,
            47.1778419
          ],
          [
            -122.591979,
            47.1779149
          ],
          [
            -122.5919342,
            47.177976
          ],
          [
            -122.5919271,
            47.1779878
          ],
          [
            -122.5918832,
            47.1780608
          ],
          [
            -122.5918307,
            47.1781272
          ],
          [
            -122.591826,
            47.1781338
          ],
          [
            -122.5917746,
            47.1782068
          ],
          [
            -122.591756,
            47.1782797
          ],
          [
            -122.5917272,
            47.1782948
          ],
          [
            -122.5916237,
            47.1783518
          ],
          [
            -122.5916222,
            47.1783527
          ],
          [
            -122.5915549,
            47.1784257
          ],
          [
            -122.5915202,
            47.1784575
          ],
          [
            -122.5914835,
            47.1784986
          ],
          [
            -122.5914167,
            47.1785648
          ],
          [
            -122.5914086,
            47.1785716
          ],
          [
            -122.5913168,
            47.1786446
          ],
          [
            -122.5913132,
            47.1786477
          ],
          [
            -122.5912117,
            47.1787176
          ],
          [
            -122.5912096,
            47.1787192
          ],
          [
            -122.5911061,
            47.1787839
          ],
          [
            -122.5910956,
            47.1787905
          ],
          [
            -122.5910026,
            47.1788492
          ],
          [
            -122.5909788,
            47.1788635
          ],
          [
            -122.5908991,
            47.1789316
          ],
          [
            -122.5908944,
            47.1789365
          ],
          [
            -122.590819,
            47.1790095
          ],
          [
            -122.5907956,
            47.1790363
          ],
          [
            -122.5907844,
            47.1790824
          ],
          [
            -122.5907705,
            47.1791554
          ],
          [
            -122.5907634,
            47.1792284
          ],
          [
            -122.5907603,
            47.1793014
          ],
          [
            -122.5907581,
            47.1793743
          ],
          [
            -122.5907712,
            47.1794473
          ],
          [
            -122.5907956,
            47.1795049
          ],
          [
            -122.5908044,
            47.1795203
          ],
          [
            -122.5908158,
            47.1795932
          ],
          [
            -122.5908132,
            47.1796662
          ],
          [
            -122.5908061,
            47.1797392
          ],
          [
            -122.5907982,
            47.1798122
          ],
          [
            -122.5907956,
            47.1798367
          ],
          [
            -122.5907917,
            47.1798851
          ],
          [
            -122.5907582,
            47.1799581
          ],
          [
            -122.5907138,
            47.1800311
          ],
          [
            -122.5906921,
            47.1800535
          ],
          [
            -122.5906393,
            47.1801041
          ],
          [
            -122.5905886,
            47.1801383
          ],
          [
            -122.5904921,
            47.180177
          ],
          [
            -122.5904851,
            47.1801802
          ],
          [
            -122.5903816,
            47.1802236
          ],
          [
            -122.5903004,
            47.18025
          ]
        ]
      }
    },
    {
      "type": "Feature",
      "properties": {
        "id": "sunnyside-40ft-1",
        "depth_ft": 40,
        "depth_m": 12.19,
        "label": "40 ft",
        "source": "WA DNR / USGS CoNED MLLW bathymetry sampled 2026-06-13 for Sunnyside Beach dive map"
      },
      "geometry": {
        "type": "LineString",
        "coordinates": [
          [
            -122.5935526,
            47.17755
          ],
          [
            -122.5934868,
            47.1776146
          ],
          [
            -122.5934773,
            47.177623
          ],
          [
            -122.593398,
            47.1776959
          ],
          [
            -122.5933833,
            47.1777085
          ],
          [
            -122.5932994,
            47.1777689
          ],
          [
            -122.5932798,
            47.177782
          ],
          [
            -122.5931763,
            47.1778349
          ],
          [
            -122.5931633,
            47.1778419
          ],
          [
            -122.5930728,
            47.1778781
          ],
          [
            -122.592996,
            47.1779149
          ],
          [
            -122.5929693,
            47.1779258
          ],
          [
            -122.5928658,
            47.1779805
          ],
          [
            -122.5928488,
            47.1779878
          ],
          [
            -122.5927623,
            47.1780231
          ],
          [
            -122.5926588,
            47.1780586
          ],
          [
            -122.592654,
            47.1780608
          ],
          [
            -122.5925553,
            47.1781055
          ],
          [
            -122.5924859,
            47.1781338
          ],
          [
            -122.5924518,
            47.1781478
          ],
          [
            -122.5923482,
            47.1781895
          ],
          [
            -122.5923227,
            47.1782068
          ],
          [
            -122.5922447,
            47.1782551
          ],
          [
            -122.5922156,
            47.1782797
          ],
          [
            -122.5921412,
            47.1783321
          ],
          [
            -122.5921188,
            47.1783527
          ],
          [
            -122.5920542,
            47.1784257
          ],
          [
            -122.5920377,
            47.1784315
          ],
          [
            -122.5919422,
            47.1784986
          ],
          [
            -122.5919342,
            47.1785064
          ],
          [
            -122.5918559,
            47.1785716
          ],
          [
            -122.5918307,
            47.178592
          ],
          [
            -122.5917705,
            47.1786446
          ],
          [
            -122.5917272,
            47.1786808
          ],
          [
            -122.5916796,
            47.1787176
          ],
          [
            -122.5916237,
            47.1787573
          ],
          [
            -122.5915799,
            47.1787905
          ],
          [
            -122.5915202,
            47.1788374
          ],
          [
            -122.5914886,
            47.1788635
          ],
          [
            -122.5914167,
            47.1789285
          ],
          [
            -122.5914082,
            47.1789365
          ],
          [
            -122.5913409,
            47.1790095
          ],
          [
            -122.5913132,
            47.1790483
          ],
          [
            -122.5912911,
            47.1790824
          ],
          [
            -122.5912421,
            47.1791554
          ],
          [
            -122.5912096,
            47.1792006
          ],
          [
            -122.591189,
            47.1792284
          ],
          [
            -122.5911382,
            47.1793014
          ],
          [
            -122.5911058,
            47.1793743
          ],
          [
            -122.5910339,
            47.1794473
          ],
          [
            -122.5910026,
            47.1794838
          ],
          [
            -122.5909834,
            47.1795203
          ],
          [
            -122.590963,
            47.1795932
          ],
          [
            -122.5909355,
            47.1796662
          ],
          [
            -122.5909234,
            47.1797392
          ],
          [
            -122.5909273,
            47.1798122
          ],
          [
            -122.5908991,
            47.1798625
          ],
          [
            -122.590893,
            47.1798851
          ],
          [
            -122.5908685,
            47.1799581
          ],
          [
            -122.5908332,
            47.1800311
          ],
          [
            -122.5907956,
            47.1800685
          ],
          [
            -122.5907644,
            47.1801041
          ],
          [
            -122.5906921,
            47.1801705
          ],
          [
            -122.5906822,
            47.180177
          ],
          [
            -122.5905886,
            47.1802378
          ],
          [
            -122.5905567,
            47.18025
          ]
        ]
      }
    },
    {
      "type": "Feature",
      "properties": {
        "id": "sunnyside-40ft-2",
        "depth_ft": 40,
        "depth_m": 12.19,
        "label": "40 ft",
        "source": "WA DNR / USGS CoNED MLLW bathymetry sampled 2026-06-13 for Sunnyside Beach dive map"
      },
      "geometry": {
        "type": "LineString",
        "coordinates": [
          [
            -122.5911058,
            47.1793743
          ],
          [
            -122.5911061,
            47.1793738
          ]
        ]
      }
    },
    {
      "type": "Feature",
      "properties": {
        "id": "sunnyside-50ft-1",
        "depth_ft": 50,
        "depth_m": 15.24,
        "label": "50 ft",
        "source": "WA DNR / USGS CoNED MLLW bathymetry sampled 2026-06-13 for Sunnyside Beach dive map"
      },
      "geometry": {
        "type": "LineString",
        "coordinates": [
          [
            -122.5909022,
            47.18025
          ],
          [
            -122.5909748,
            47.180177
          ],
          [
            -122.5910026,
            47.1801431
          ],
          [
            -122.5910359,
            47.1801041
          ],
          [
            -122.5910806,
            47.1800311
          ],
          [
            -122.5911061,
            47.1799743
          ],
          [
            -122.5911148,
            47.1799581
          ],
          [
            -122.5911577,
            47.1798851
          ],
          [
            -122.5911935,
            47.1798122
          ],
          [
            -122.5912096,
            47.1797796
          ],
          [
            -122.5912344,
            47.1797392
          ],
          [
            -122.5912752,
            47.1796662
          ],
          [
            -122.5913132,
            47.1795983
          ],
          [
            -122.5913166,
            47.1795932
          ],
          [
            -122.5913623,
            47.1795203
          ],
          [
            -122.5914032,
            47.1794473
          ],
          [
            -122.5914167,
            47.1794231
          ],
          [
            -122.5914476,
            47.1793743
          ],
          [
            -122.5914918,
            47.1793014
          ],
          [
            -122.5915202,
            47.1792627
          ],
          [
            -122.5915483,
            47.1792284
          ],
          [
            -122.5916188,
            47.1791554
          ],
          [
            -122.5916237,
            47.1791508
          ],
          [
            -122.5917103,
            47.1790824
          ],
          [
            -122.5917272,
            47.1790697
          ],
          [
            -122.591821,
            47.1790095
          ],
          [
            -122.5918307,
            47.1790025
          ],
          [
            -122.5919342,
            47.1789475
          ],
          [
            -122.5919618,
            47.1789365
          ],
          [
            -122.5920377,
            47.1789039
          ],
          [
            -122.5921285,
            47.1788635
          ],
          [
            -122.5921412,
            47.1788576
          ],
          [
            -122.5922447,
            47.1788065
          ],
          [
            -122.5922766,
            47.1787905
          ],
          [
            -122.5923482,
            47.1787502
          ],
          [
            -122.5924155,
            47.1787176
          ],
          [
            -122.5924518,
            47.1786996
          ],
          [
            -122.5925553,
            47.1786725
          ],
          [
            -122.5926102,
            47.1786446
          ],
          [
            -122.5926588,
            47.1786129
          ],
          [
            -122.5927431,
            47.1785716
          ],
          [
            -122.5927623,
            47.1785625
          ],
          [
            -122.5928658,
            47.1785133
          ],
          [
            -122.5928989,
            47.1784986
          ],
          [
            -122.5929693,
            47.1784672
          ],
          [
            -122.5930412,
            47.1784257
          ],
          [
            -122.5930728,
            47.17841
          ],
          [
            -122.5931763,
            47.1783596
          ],
          [
            -122.593191,
            47.1783527
          ],
          [
            -122.5932798,
            47.1783106
          ],
          [
            -122.593341,
            47.1782797
          ],
          [
            -122.5933833,
            47.1782589
          ],
          [
            -122.5934868,
            47.1782091
          ],
          [
            -122.5934919,
            47.1782068
          ],
          [
            -122.5935904,
            47.1781606
          ],
          [
            -122.5936432,
            47.1781338
          ],
          [
            -122.5936939,
            47.1781075
          ],
          [
            -122.5937601,
            47.1780608
          ],
          [
            -122.5937974,
            47.1780326
          ],
          [
            -122.5938677,
            47.1779878
          ],
          [
            -122.5939009,
            47.1779675
          ],
          [
            -122.5939839,
            47.1779149
          ],
          [
            -122.5940044,
            47.177898
          ],
          [
            -122.5940799,
            47.1778419
          ],
          [
            -122.5941079,
            47.1778167
          ],
          [
            -122.594167,
            47.1777689
          ],
          [
            -122.5942114,
            47.1777339
          ],
          [
            -122.5942633,
            47.1776959
          ],
          [
            -122.5943149,
            47.1776511
          ],
          [
            -122.594341,
            47.177623
          ],
          [
            -122.5944184,
            47.1775539
          ],
          [
            -122.5944231,
            47.17755
          ]
        ]
      }
    },
    {
      "type": "Feature",
      "properties": {
        "id": "sunnyside-60ft-1",
        "depth_ft": 60,
        "depth_m": 18.29,
        "label": "60 ft",
        "source": "WA DNR / USGS CoNED MLLW bathymetry sampled 2026-06-13 for Sunnyside Beach dive map"
      },
      "geometry": {
        "type": "LineString",
        "coordinates": [
          [
            -122.5913213,
            47.18025
          ],
          [
            -122.5913541,
            47.180177
          ],
          [
            -122.5913978,
            47.1801041
          ],
          [
            -122.5914167,
            47.1800732
          ],
          [
            -122.5914421,
            47.1800311
          ],
          [
            -122.5914865,
            47.1799581
          ],
          [
            -122.5915202,
            47.17991
          ],
          [
            -122.5915385,
            47.1798851
          ],
          [
            -122.5915927,
            47.1798122
          ],
          [
            -122.5916237,
            47.1797721
          ],
          [
            -122.5916581,
            47.1797392
          ],
          [
            -122.5917272,
            47.1796719
          ],
          [
            -122.591734,
            47.1796662
          ],
          [
            -122.5918221,
            47.1795932
          ],
          [
            -122.5918307,
            47.179585
          ],
          [
            -122.5919058,
            47.1795203
          ],
          [
            -122.5919342,
            47.1794946
          ],
          [
            -122.5919904,
            47.1794473
          ],
          [
            -122.5920377,
            47.1794085
          ],
          [
            -122.5920813,
            47.1793743
          ],
          [
            -122.5921412,
            47.1793318
          ],
          [
            -122.59218,
            47.1793014
          ],
          [
            -122.5922447,
            47.1792607
          ],
          [
            -122.5923009,
            47.1792284
          ],
          [
            -122.5923482,
            47.1792013
          ],
          [
            -122.5924271,
            47.1791554
          ],
          [
            -122.5924518,
            47.1791418
          ],
          [
            -122.5925472,
            47.1790824
          ],
          [
            -122.5925553,
            47.1790781
          ],
          [
            -122.5926588,
            47.1790261
          ],
          [
            -122.5926943,
            47.1790095
          ],
          [
            -122.5927623,
            47.1789759
          ],
          [
            -122.5928658,
            47.1789555
          ],
          [
            -122.5929025,
            47.1789365
          ],
          [
            -122.5929693,
            47.1788822
          ],
          [
            -122.5930063,
            47.1788635
          ],
          [
            -122.5930728,
            47.1788294
          ],
          [
            -122.5931475,
            47.1787905
          ],
          [
            -122.5931763,
            47.1787763
          ],
          [
            -122.5932798,
            47.1787214
          ],
          [
            -122.5932868,
            47.1787176
          ],
          [
            -122.5933833,
            47.178658
          ],
          [
            -122.5934098,
            47.1786446
          ],
          [
            -122.5934868,
            47.1786062
          ],
          [
            -122.5935528,
            47.1785716
          ],
          [
            -122.5935904,
            47.1785528
          ],
          [
            -122.5936939,
            47.178501
          ],
          [
            -122.5936981,
            47.1784986
          ],
          [
            -122.5937974,
            47.1784397
          ],
          [
            -122.5938248,
            47.1784257
          ],
          [
            -122.5939009,
            47.1783851
          ],
          [
            -122.593974,
            47.1783527
          ],
          [
            -122.5940044,
            47.1783382
          ],
          [
            -122.5941079,
            47.1782866
          ],
          [
            -122.5941243,
            47.1782797
          ],
          [
            -122.5942114,
            47.1782439
          ],
          [
            -122.5943067,
            47.1782068
          ],
          [
            -122.5943149,
            47.1782035
          ],
          [
            -122.5944184,
            47.1781621
          ],
          [
            -122.5944905,
            47.1781338
          ],
          [
            -122.5945219,
            47.1781208
          ],
          [
            -122.5946254,
            47.178068
          ],
          [
            -122.5946405,
            47.1780608
          ],
          [
            -122.5947289,
            47.1780148
          ],
          [
            -122.5947984,
            47.1779878
          ],
          [
            -122.5948325,
            47.1779751
          ],
          [
            -122.5949331,
            47.1779149
          ],
          [
            -122.594936,
            47.1779133
          ],
          [
            -122.5950395,
            47.1778581
          ],
          [
            -122.595072,
            47.1778419
          ],
          [
            -122.595143,
            47.1778006
          ],
          [
            -122.5952019,
            47.1777689
          ],
          [
            -122.5952465,
            47.1777414
          ],
          [
            -122.5953316,
            47.1776959
          ],
          [
            -122.59535,
            47.177685
          ]
        ]
      }
    },
    {
      "type": "Feature",
      "properties": {
        "id": "sunnyside-70ft-1",
        "depth_ft": 70,
        "depth_m": 21.34,
        "label": "70 ft",
        "source": "WA DNR / USGS CoNED MLLW bathymetry sampled 2026-06-13 for Sunnyside Beach dive map"
      },
      "geometry": {
        "type": "LineString",
        "coordinates": [
          [
            -122.59535,
            47.1781786
          ],
          [
            -122.595247,
            47.1782068
          ],
          [
            -122.5952465,
            47.1782069
          ],
          [
            -122.595143,
            47.1782451
          ],
          [
            -122.5950607,
            47.1782797
          ],
          [
            -122.5950395,
            47.1782896
          ],
          [
            -122.594936,
            47.17833
          ],
          [
            -122.5948844,
            47.1783527
          ],
          [
            -122.5948325,
            47.1783752
          ],
          [
            -122.5947289,
            47.1784138
          ],
          [
            -122.5946939,
            47.1784257
          ],
          [
            -122.5946254,
            47.1784523
          ],
          [
            -122.5945287,
            47.1784986
          ],
          [
            -122.5945219,
            47.178502
          ],
          [
            -122.5944184,
            47.178564
          ],
          [
            -122.5944026,
            47.1785716
          ],
          [
            -122.5943149,
            47.1786144
          ],
          [
            -122.59425,
            47.1786446
          ],
          [
            -122.5942114,
            47.1786608
          ],
          [
            -122.5941079,
            47.1787055
          ],
          [
            -122.5940786,
            47.1787176
          ],
          [
            -122.5940044,
            47.1787486
          ],
          [
            -122.5939055,
            47.1787905
          ],
          [
            -122.5939009,
            47.1787925
          ],
          [
            -122.5937974,
            47.1788411
          ],
          [
            -122.5937589,
            47.1788635
          ],
          [
            -122.5936939,
            47.178897
          ],
          [
            -122.5936245,
            47.1789365
          ],
          [
            -122.5935904,
            47.1789599
          ],
          [
            -122.5935068,
            47.1790095
          ],
          [
            -122.5934868,
            47.179022
          ],
          [
            -122.5933911,
            47.1790824
          ],
          [
            -122.5933833,
            47.1790873
          ],
          [
            -122.5932938,
            47.1791554
          ],
          [
            -122.5932798,
            47.1791653
          ],
          [
            -122.5931762,
            47.1792284
          ],
          [
            -122.5930991,
            47.1793014
          ],
          [
            -122.5930728,
            47.1793193
          ],
          [
            -122.5929693,
            47.1793713
          ],
          [
            -122.5929636,
            47.1793743
          ],
          [
            -122.5928658,
            47.1794397
          ],
          [
            -122.5928522,
            47.1794473
          ],
          [
            -122.5927623,
            47.1794889
          ],
          [
            -122.592679,
            47.1795203
          ],
          [
            -122.5926588,
            47.1795293
          ],
          [
            -122.5925553,
            47.1795723
          ],
          [
            -122.5925109,
            47.1795932
          ],
          [
            -122.5924518,
            47.179625
          ],
          [
            -122.5923683,
            47.1796662
          ],
          [
            -122.5923482,
            47.1796758
          ],
          [
            -122.5922447,
            47.1797294
          ],
          [
            -122.5922281,
            47.1797392
          ],
          [
            -122.5921412,
            47.1797949
          ],
          [
            -122.5921166,
            47.1798122
          ],
          [
            -122.5920377,
            47.1798756
          ],
          [
            -122.5920259,
            47.1798851
          ],
          [
            -122.5919342,
            47.1799567
          ],
          [
            -122.5919326,
            47.1799581
          ],
          [
            -122.5918653,
            47.1800311
          ],
          [
            -122.5918307,
            47.180063
          ],
          [
            -122.5917941,
            47.1801041
          ],
          [
            -122.5917331,
            47.180177
          ],
          [
            -122.5917272,
            47.1801828
          ],
          [
            -122.5916722,
            47.18025
          ]
        ]
      }
    },
    {
      "type": "Feature",
      "properties": {
        "id": "sunnyside-70ft-2",
        "depth_ft": 70,
        "depth_m": 21.34,
        "label": "70 ft",
        "source": "WA DNR / USGS CoNED MLLW bathymetry sampled 2026-06-13 for Sunnyside Beach dive map"
      },
      "geometry": {
        "type": "LineString",
        "coordinates": [
          [
            -122.5931762,
            47.1792284
          ],
          [
            -122.5931763,
            47.1792283
          ]
        ]
      }
    },
    {
      "type": "Feature",
      "properties": {
        "id": "sunnyside-80ft-1",
        "depth_ft": 80,
        "depth_m": 24.38,
        "label": "80 ft",
        "source": "WA DNR / USGS CoNED MLLW bathymetry sampled 2026-06-13 for Sunnyside Beach dive map"
      },
      "geometry": {
        "type": "LineString",
        "coordinates": [
          [
            -122.59535,
            47.1785788
          ],
          [
            -122.5952465,
            47.1786159
          ],
          [
            -122.5951648,
            47.1786446
          ],
          [
            -122.595143,
            47.1786522
          ],
          [
            -122.5950395,
            47.178689
          ],
          [
            -122.5949757,
            47.1787176
          ],
          [
            -122.594936,
            47.1787354
          ],
          [
            -122.5948325,
            47.1787792
          ],
          [
            -122.5948111,
            47.1787905
          ],
          [
            -122.5947289,
            47.1788323
          ],
          [
            -122.5946646,
            47.1788635
          ],
          [
            -122.5946254,
            47.1788903
          ],
          [
            -122.5945427,
            47.1789365
          ],
          [
            -122.5945219,
            47.1789458
          ],
          [
            -122.5944184,
            47.1789929
          ],
          [
            -122.5943808,
            47.1790095
          ],
          [
            -122.5943149,
            47.1790409
          ],
          [
            -122.5942294,
            47.1790824
          ],
          [
            -122.5942114,
            47.1790918
          ],
          [
            -122.5941079,
            47.179147
          ],
          [
            -122.5940877,
            47.1791554
          ],
          [
            -122.5940044,
            47.1791889
          ],
          [
            -122.5939259,
            47.1792284
          ],
          [
            -122.5939009,
            47.1792404
          ],
          [
            -122.5937974,
            47.1792901
          ],
          [
            -122.5937737,
            47.1793014
          ],
          [
            -122.5936939,
            47.1793387
          ],
          [
            -122.5936311,
            47.1793743
          ],
          [
            -122.5935904,
            47.1793901
          ],
          [
            -122.5934868,
            47.1794099
          ],
          [
            -122.5934228,
            47.1794473
          ],
          [
            -122.5933833,
            47.1794726
          ],
          [
            -122.5932948,
            47.1795203
          ],
          [
            -122.5932798,
            47.1795278
          ],
          [
            -122.5931763,
            47.1795883
          ],
          [
            -122.5931686,
            47.1795932
          ],
          [
            -122.5930728,
            47.1796651
          ],
          [
            -122.5930712,
            47.1796662
          ],
          [
            -122.5929856,
            47.1797392
          ],
          [
            -122.5929693,
            47.1797542
          ],
          [
            -122.5929012,
            47.1798122
          ],
          [
            -122.5928658,
            47.1798426
          ],
          [
            -122.5928145,
            47.1798851
          ],
          [
            -122.5927623,
            47.1799305
          ],
          [
            -122.5927275,
            47.1799581
          ],
          [
            -122.5926588,
            47.1800077
          ],
          [
            -122.5926244,
            47.1800311
          ],
          [
            -122.5925553,
            47.1800812
          ],
          [
            -122.5925176,
            47.1801041
          ],
          [
            -122.5924518,
            47.180143
          ],
          [
            -122.5923973,
            47.180177
          ],
          [
            -122.5923482,
            47.1802071
          ],
          [
            -122.5922848,
            47.18025
          ]
        ]
      }
    },
    {
      "type": "Feature",
      "properties": {
        "id": "sunnyside-90ft-1",
        "depth_ft": 90,
        "depth_m": 27.43,
        "label": "90 ft",
        "source": "WA DNR / USGS CoNED MLLW bathymetry sampled 2026-06-13 for Sunnyside Beach dive map"
      },
      "geometry": {
        "type": "LineString",
        "coordinates": [
          [
            -122.59535,
            47.1790123
          ],
          [
            -122.5952465,
            47.1790633
          ],
          [
            -122.5952107,
            47.1790824
          ],
          [
            -122.595143,
            47.1791178
          ],
          [
            -122.5950631,
            47.1791554
          ],
          [
            -122.5950395,
            47.1791664
          ],
          [
            -122.594936,
            47.1792198
          ],
          [
            -122.5949196,
            47.1792284
          ],
          [
            -122.5948325,
            47.1792758
          ],
          [
            -122.5947762,
            47.1793014
          ],
          [
            -122.5947289,
            47.1793219
          ],
          [
            -122.5946254,
            47.1793705
          ],
          [
            -122.5946181,
            47.1793743
          ],
          [
            -122.5945219,
            47.1794242
          ],
          [
            -122.5944746,
            47.1794473
          ],
          [
            -122.5944184,
            47.1794743
          ],
          [
            -122.5943336,
            47.1795203
          ],
          [
            -122.5943149,
            47.1795301
          ],
          [
            -122.5942106,
            47.1795932
          ],
          [
            -122.5941079,
            47.1796241
          ],
          [
            -122.5940044,
            47.1796582
          ],
          [
            -122.5939887,
            47.1796662
          ],
          [
            -122.5939009,
            47.1797131
          ],
          [
            -122.5938357,
            47.1797392
          ],
          [
            -122.5937974,
            47.1797562
          ],
          [
            -122.5936939,
            47.179802
          ],
          [
            -122.5936715,
            47.1798122
          ],
          [
            -122.5935904,
            47.1798522
          ],
          [
            -122.5935316,
            47.1798851
          ],
          [
            -122.5934868,
            47.1799101
          ],
          [
            -122.5934179,
            47.1799581
          ],
          [
            -122.5933833,
            47.1799781
          ],
          [
            -122.5932798,
            47.1800208
          ],
          [
            -122.5932653,
            47.1800311
          ],
          [
            -122.5931763,
            47.1800874
          ],
          [
            -122.5931552,
            47.1801041
          ],
          [
            -122.5930728,
            47.180169
          ],
          [
            -122.5930629,
            47.180177
          ],
          [
            -122.5929693,
            47.1802454
          ],
          [
            -122.5929631,
            47.18025
          ]
        ]
      }
    },
    {
      "type": "Feature",
      "properties": {
        "id": "sunnyside-90ft-2",
        "depth_ft": 90,
        "depth_m": 27.43,
        "label": "90 ft",
        "source": "WA DNR / USGS CoNED MLLW bathymetry sampled 2026-06-13 for Sunnyside Beach dive map"
      },
      "geometry": {
        "type": "LineString",
        "coordinates": [
          [
            -122.5942106,
            47.1795932
          ],
          [
            -122.5942114,
            47.1795928
          ]
        ]
      }
    },
    {
      "type": "Feature",
      "properties": {
        "id": "sunnyside-100ft-1",
        "depth_ft": 100,
        "depth_m": 30.48,
        "label": "100 ft",
        "source": "WA DNR / USGS CoNED MLLW bathymetry sampled 2026-06-13 for Sunnyside Beach dive map"
      },
      "geometry": {
        "type": "LineString",
        "coordinates": [
          [
            -122.59535,
            47.1795642
          ],
          [
            -122.595269,
            47.1795932
          ],
          [
            -122.5952465,
            47.1796019
          ],
          [
            -122.595143,
            47.1796437
          ],
          [
            -122.5950847,
            47.1796662
          ],
          [
            -122.5950395,
            47.1796869
          ],
          [
            -122.594936,
            47.179729
          ],
          [
            -122.5949059,
            47.1797392
          ],
          [
            -122.5948325,
            47.179765
          ],
          [
            -122.5947289,
            47.1798023
          ],
          [
            -122.5947042,
            47.1798122
          ],
          [
            -122.5946254,
            47.1798441
          ],
          [
            -122.5945219,
            47.1798827
          ],
          [
            -122.5945171,
            47.1798851
          ],
          [
            -122.5944184,
            47.1799293
          ],
          [
            -122.59435,
            47.1799581
          ],
          [
            -122.5943149,
            47.1799748
          ],
          [
            -122.5942114,
            47.1800127
          ],
          [
            -122.594159,
            47.1800311
          ],
          [
            -122.5941079,
            47.1800491
          ],
          [
            -122.5940044,
            47.1800838
          ],
          [
            -122.5939466,
            47.1801041
          ],
          [
            -122.5939009,
            47.180122
          ],
          [
            -122.5937974,
            47.1801626
          ],
          [
            -122.5937694,
            47.180177
          ],
          [
            -122.5936939,
            47.1802166
          ],
          [
            -122.5936348,
            47.18025
          ]
        ]
      }
    }
  ]
}
